0 SL-8 DEB
1 01549U 65020CV  13283.33474209 -.00000538  00000-0 -60833-3 0  3727
2 01549 056.1766 276.5877 0841215 193.7181 163.9542 12.62139887230120
0 SL-8 DEB
1 01549U 65020CV  13286.34443955 -.00000691  00000-0 -82249-3 0  3731
2 01549 056.1778 268.1915 0841006 197.8633 159.0759 12.62135352230509
0 SL-8 DEB
1 01549U 65020CV  13287.37408267 -.00000695  00000-0 -83327-3 0  3745
2 01549 056.1750 265.3104 0839260 199.3043 157.4218 12.62134176230627
0 SL-8 DEB
1 01549U 65020CV  13289.35415880 -.00000620  00000-0 -72868-3 0  3751
2 01549 056.1754 259.7842 0839147 202.0275 154.2489 12.62131152230873
0 SL-8 DEB
1 01549U 65020CV  13291.33424059 -.00000686  00000-0 -82208-3 0  3762
2 01549 056.1757 254.2584 0838934 204.7604 151.0756 12.62128751231129
0 SL-8 DEB
1 01549U 65020CV  13294.26477417 -.00000670  00000-0 -80105-3 0  3771
2 01549 056.1759 246.0804 0838660 208.7939 146.4136 12.62125565231496
0 SL-8 DEB
1 01549U 65020CV  13295.29442368 -.00000649  00000-0 -77211-3 0  3783
2 01549 056.1761 243.2072 0838644 210.2132 144.7793 12.62124922231621
